OBJECT_NAME,OBJECT_ID,EPOCH,MEAN_MOTION,ECCENTRICITY,INCLINATION,RA_OF_ASC_NODE,ARG_OF_PERICENTER,MEAN_ANOMALY,EPHEMERIS_TYPE,CLASSIFICATION_TYPE,NORAD_CAT_ID,ELEMENT_SET_NO,REV_AT_EPOCH,BSTAR,MEAN_MOTION_DOT,MEAN_MOTION_DDOT
COSMOS 2251,1993-036A,2024-03-18T07:38:19.094784,14.32843009,0.0026123,74.0404,34.7466,273.3644,86.4519,0,U,22675,999,60685,6.9955e-05,1.65e-06,0
COSMOS 2251 DEB,1993-036E,2024-03-18T08:20:35.693376,14.32283732,0.0015622,74.037,41.4684,216.3684,256.4123,0,U,33757,999,78912,5.9585e-05,1.35e-06,0
COSMOS 2251 DEB,1993-036F,2024-03-18T02:09:23.662944,14.43809864,0.0021416,74.0329,323.5985,186.7566,292.4413,0,U,33758,999,79118,0.00070224,2.372e-05,0
COSMOS 2251 DEB,1993-036G,2024-03-18T09:29:22.468416,14.68813726,0.0013575,74.0162,171.6386,67.3948,6.423,0,U,33759,999,79644,0.0023942,0.00013995,0
COSMOS 2251 DEB,1993-036H,2024-03-18T04:17:28.471200,14.34891274,0.0021823,74.0346,5.4106,260.6619,210.214,0,U,33760,999,79020,0.000122,3.21e-06,0
COSMOS 2251 DEB,1993-036J,2024-03-18T04:47:43.138176,14.39070327,0.0025705,74.0397,346.5106,224.8807,287.6256,0,U,33761,999,79094,0.00041814,1.271e-05,0
COSMOS 2251 DEB,1993-036K,2024-03-18T13:37:45.156000,14.33286754,0.0016525,74.0432,29.1218,250.738,226.0836,0,U,33762,999,78960,8.2864e-05,2.02e-06,0
COSMOS 2251 DEB,1993-036M,2024-03-18T06:31:19.818624,14.37020266,0.0023331,74.0368,2.1394,123.8155,357.6921,0,U,33764,999,79034,0.00036214,1.051e-05,0
COSMOS 2251 DEB,1993-036N,2024-03-18T05:27:23.207616,14.74139536,0.0131132,74.0198,5.9419,260.4427,262.0351,0,U,33765,999,80164,0.0012319,9.305e-05,0
COSMOS 2251 DEB,1993-036P,2024-03-18T12:28:49.212192,14.31421579,0.0066681,74.189,203.6846,227.0189,132.5362,0,U,33766,999,78658,0.00081006,2.177e-05,0
COSMOS 2251 DEB,1993-036R,2024-03-18T10:21:54.468288,13.57266518,0.0369165,74.0703,162.7907,101.4453,336.2267,0,U,33768,999,74685,0.00029239,3.07e-06,0
COSMOS 2251 DEB,1993-036T,2024-03-18T10:35:03.828192,14.87963037,0.0030017,74.0132,80.9356,302.167,172.573,0,U,33770,999,79890,0.003815,0.00035425,0
COSMOS 2251 DEB,1993-036U,2024-03-18T02:26:54.656736,14.51397639,0.00278,74.0483,303.3877,141.5927,342.7945,0,U,33779,999,79258,0.0017284,6.908e-05,0
COSMOS 2251 DEB,1993-036X,2024-03-18T06:20:49.678368,14.37336114,0.0023416,74.0366,8.3138,232.7315,280.2651,0,U,33782,999,78999,0.00043755,1.284e-05,0
COSMOS 2251 DEB,1993-036Z,2024-03-18T06:02:35.272032,14.82767813,0.0036702,74.1917,17.3758,45.0256,67.6752,0,U,33784,999,80524,0.0020951,0.00017144,0
COSMOS 2251 DEB,1993-036AA,2024-03-18T12:04:06.189024,14.51443421,0.0026744,73.8773,205.3297,286.2054,148.9415,0,U,33785,999,79241,0.0021349,8.545e-05,0
COSMOS 2251 DEB,1993-036AE,2024-03-18T11:46:31.620000,13.86984296,0.0245256,74.0622,82.4343,344.2503,135.6803,0,U,33789,999,76295,0.00082305,1.197e-05,0
COSMOS 2251 DEB,1993-036AG,2024-03-18T12:59:59.654688,14.37569389,0.0030025,74.174,120.6796,134.154,346.1924,0,U,33791,999,78919,0.00062662,1.864e-05,0
COSMOS 2251 DEB,1993-036AH,2024-03-18T00:32:05.538048,13.43954714,0.0436151,73.8976,277.6387,95.8991,23.9272,0,U,33792,999,73908,0.00098102,9.86e-06,0
COSMOS 2251 DEB,1993-036AJ,2024-03-18T11:25:28.585056,14.2366,0.0082559,73.9842,219.2008,151.879,272.062,0,U,33793,999,78166,0.00097471,2.278e-05,0
COSMOS 2251 DEB,1993-036AL,2024-03-18T00:06:38.711808,14.76665707,0.0064156,74.0407,267.6713,160.5279,323.0688,0,U,33795,999,80565,0.0014215,0.00010266,0
COSMOS 2251 DEB,1993-036AN,2024-03-18T12:52:43.504032,14.52469555,0.0068201,74.049,155.6063,42.9705,63.7921,0,U,33797,999,79758,0.00042914,1.776e-05,0
COSMOS 2251 DEB,1993-036AP,2024-03-18T12:11:04.232832,14.43196971,0.0093222,74.0288,236.0287,153.2008,264.4454,0,U,33798,999,79439,0.00029172,1.006e-05,0
COSMOS 2251 DEB,1993-036AQ,2024-03-18T11:00:04.500288,14.56147241,0.0042962,74.0396,227.3904,101.3613,315.1363,0,U,33799,999,79505,0.0011877,5.283e-05,0
COSMOS 2251 DEB,1993-036AW,2024-03-18T10:24:13.979232,14.54753195,0.0062655,74.0297,75.334,61.3592,299.3852,0,U,33805,999,79992,0.00034302,1.479e-05,0
COSMOS 2251 DEB,1993-036AX,2024-03-18T01:32:28.627008,15.14474131,0.0028633,74.063,289.6727,104.7788,17.0205,0,U,33806,999,80583,0.0039153,0.00073479,0
COSMOS 2251 DEB,1993-036BC,2024-03-18T07:36:56.202624,14.76594506,0.0056822,73.8501,148.1503,3.5407,66.121,0,U,33811,999,80566,0.00074434,5.304e-05,0
COSMOS 2251 DEB,1993-036BE,2024-03-17T15:21:28.573056,14.89449847,0.0071178,74.0417,149.9868,16.6249,133.1926,0,U,33813,999,80946,0.00097807,9.734e-05,0
COSMOS 2251 DEB,1993-036BG,2024-03-18T03:52:51.491712,14.53491913,0.004782,73.9824,347.5576,215.995,273.8977,0,U,33815,999,78996,0.0020154,8.513e-05,0
COSMOS 2251 DEB,1993-036BH,2024-03-18T10:44:37.392864,13.79935033,0.0272986,73.8937,99.0975,231.795,125.8309,0,U,33816,999,75917,0.00049688,6.57e-06,0
COSMOS 2251 DEB,1993-036BJ,2024-03-18T11:42:20.654784,14.89620364,0.0040466,74.056,243.8041,121.7363,238.7772,0,U,33817,999,80709,0.0024988,0.00024293,0
COSMOS 2251 DEB,1993-036BK,2024-03-18T05:50:48.520032,14.74780029,0.0061897,74.0959,355.5468,167.8363,353.3019,0,U,33818,999,80401,0.00093157,6.403e-05,0
COSMOS 2251 DEB,1993-036BL,2024-03-18T11:59:43.389600,14.27793879,0.0094178,74.1796,273.3739,312.1397,67.6261,0,U,33819,999,78428,0.00059564,1.518e-05,0
COSMOS 2251 DEB,1993-036BN,2024-03-18T06:03:25.180128,14.94028707,0.0103469,74.0515,9.7422,219.0081,266.9758,0,U,33821,999,65432,0.00057929,6.835e-05,0
COSMOS 2251 DEB,1993-036BP,2024-03-18T11:50:33.037152,14.06358032,0.0171719,74.0762,227.6594,70.3759,355.9553,0,U,33822,999,77114,0.0011612,2.167e-05,0
COSMOS 2251 DEB,1993-036BQ,2024-03-18T08:47:24.921888,13.96158307,0.0214724,73.8122,178.8124,52.8658,15.7354,0,U,33823,999,76746,0.00066667,1.088e-05,0
COSMOS 2251 DEB,1993-036BR,2024-03-18T00:55:37.610400,14.90142865,0.0062382,74.0112,280.6095,174.0402,309.2743,0,U,33824,999,80476,0.0022855,0.00022989,0
COSMOS 2251 DEB,1993-036BS,2024-03-18T09:50:43.698336,14.55424669,0.0106716,73.9916,167.8613,289.4632,189.8518,0,U,33825,999,79603,0.0010527,4.911e-05,0
COSMOS 2251 DEB,1993-036BT,2024-03-18T12:06:36.042048,14.37746884,0.0108398,74.0652,149.5129,355.7593,119.9096,0,U,33826,999,78608,0.0010705,3.422e-05,0
COSMOS 2251 DEB,1993-036BV,2024-03-18T04:21:14.417568,14.40530901,0.0032052,74.0498,334.8536,207.6082,274.4641,0,U,33828,999,79162,0.00041385,1.299e-05,0
COSMOS 2251 DEB,1993-036BX,2024-03-18T07:27:20.642976,14.64653315,0.0053348,74.0396,22.7881,304.2591,174.872,0,U,33830,999,80142,0.00094923,5.125e-05,0
COSMOS 2251 DEB,1993-036BZ,2024-03-18T04:05:53.327904,14.4757734,0.0034945,74.0606,328.916,163.4204,352.3154,0,U,33832,999,79198,0.00084929,3.124e-05,0
COSMOS 2251 DEB,1993-036CB,2024-03-18T11:21:59.436576,14.88830768,0.0044363,74.0647,220.4831,78.8878,341.8637,0,U,33834,999,80774,0.0015422,0.00014712,0
COSMOS 2251 DEB,1993-036CC,2024-03-18T11:21:55.342080,14.51980464,0.0068765,74.0612,225.1721,82.2232,335.0004,0,U,33835,999,79548,0.00095291,3.942e-05,0
COSMOS 2251 DEB,1993-036CD,2024-03-18T08:17:03.285024,14.63294288,0.0028439,74.0036,54.8997,61.2505,55.9333,0,U,33836,999,54756,0.0011046,5.706e-05,0
COSMOS 2251 DEB,1993-036CE,2024-03-18T07:40:25.430592,14.48089737,0.00354,74.0143,167.7425,185.4758,174.602,0,U,33837,999,79603,0.00031378,1.149e-05,0
COSMOS 2251 DEB,1993-036CF,2024-03-18T12:33:27.943776,14.44734098,0.0028703,74.0365,254.4277,172.705,249.5003,0,U,33838,999,79397,0.00052656,1.81e-05,0
COSMOS 2251 DEB,1993-036CG,2024-03-18T05:11:31.310304,14.60920889,0.009077,74.0433,342.679,257.5836,267.8255,0,U,33839,999,80301,0.0002319,1.17e-05,0
COSMOS 2251 DEB,1993-036CJ,2024-03-18T05:59:49.131744,14.3617345,0.0022586,74.0407,4.8357,244.2678,268.3149,0,U,33841,999,78999,0.00025516,7.2e-06,0
COSMOS 2251 DEB,1993-036CK,2024-03-18T02:20:25.068768,14.40024325,0.0049856,74.0349,315.4059,219.335,140.418,0,U,33842,999,79192,0.00027525,8.53e-06,0
COSMOS 2251 DEB,1993-036CL,2024-03-18T11:03:02.516256,14.82612373,0.0130543,73.9753,88.2899,30.2499,330.613,0,U,33843,999,79804,0.0025633,0.00024013,0
COSMOS 2251 DEB,1993-036CM,2024-03-18T12:38:47.895936,14.30888884,0.0052728,74.0661,128.2906,309.3992,167.1109,0,U,33844,999,78644,0.00039718,1.033e-05,0
COSMOS 2251 DEB,1993-036CR,2024-03-18T10:49:38.512416,14.36254831,0.0052673,74.0328,91.0977,303.2351,182.9616,0,U,33848,999,78697,0.00099518,2.927e-05,0
COSMOS 2251 DEB,1993-036CT,2024-03-18T09:11:29.619744,14.73264365,0.0035472,74.0108,56.0406,335.8338,24.1168,0,U,33890,999,79964,0.0025137,0.00016416,0
COSMOS 2251 DEB,1993-036CV,2024-03-18T08:59:03.372576,14.19489244,0.0121976,73.8054,176.0703,319.6239,103.8987,0,U,33892,999,77940,0.00065555,1.46e-05,0
COSMOS 2251 DEB,1993-036CX,2024-03-17T19:56:15.469440,13.17692484,0.0585333,73.7671,248.5365,257.5966,95.9049,0,U,33894,999,72332,0.0014015,1.3e-05,0
COSMOS 2251 DEB,1993-036CZ,2024-03-18T12:05:03.922368,14.15183662,0.0132539,73.7696,224.8728,146.4416,282.5161,0,U,33896,999,77754,0.0011645,2.437e-05,0
COSMOS 2251 DEB,1993-036DC,2024-03-18T09:38:02.709600,14.52186384,0.006893,74.0566,209.2498,73.9805,351.4003,0,U,33899,999,79600,0.00081103,3.366e-05,0
COSMOS 2251 DEB,1993-036DD,2024-03-18T12:16:16.785696,14.53208803,0.005066,74.0187,123.7582,69.1393,51.5415,0,U,33900,999,79805,0.00038068,1.576e-05,0
COSMOS 2251 DEB,1993-036DE,2024-03-18T12:21:11.579904,14.70775256,0.0093628,73.7817,259.8011,145.7541,214.9716,0,U,33901,999,80064,0.0028629,0.00018725,0
COSMOS 2251 DEB,1993-036DJ,2024-03-18T07:53:07.401696,14.30964754,0.0059101,73.8884,47.031,63.1262,62.1852,0,U,33905,999,78597,0.00089526,2.373e-05,0
COSMOS 2251 DEB,1993-036DK,2024-03-18T09:47:54.717216,14.41822083,0.0052243,74.0349,72.9039,265.3398,219.0863,0,U,33906,999,78814,0.0016026,5.301e-05,0
COSMOS 2251 DEB,1993-036DL,2024-03-18T12:03:03.714048,14.18291855,0.0145431,74.0721,95.3936,308.3124,177.7904,0,U,33907,999,77545,0.0019993,4.548e-05,0
COSMOS 2251 DEB,1993-036DM,2024-03-18T11:56:02.547744,13.98343813,0.0248292,73.8406,243.7647,23.4561,337.7665,0,U,33908,999,76576,0.0012943,2.381e-05,0
